STARLINK-11318 [DTC]    
1 61252U 24175K   24288.16606118  .00001341  00000+0  11041-4 0  9997
2 61252  53.1635  58.8061 0001129 106.7516 253.3630 15.79229299  3895
STARLINK-11311 [DTC]    
1 61253U 24175L   24287.91667824  .00057973  00000+0  30261-3 0  9997
2 61253  53.1621  59.9789 0001039  79.0794 337.2587 15.80338064  4123
STARLINK-11306 [DTC]    
1 61254U 24175M   24288.09068874  .00011182  00000+0  58581-4 0  9996
2 61254  53.1642  59.0410 0001539 120.8059 239.3116 15.81445679  4204
STARLINK-11313 [DTC]    
1 61255U 24175N   24288.08517035  .00007386  00000+0  37735-4 0  9993
2 61255  53.1633  59.0039 0000945  85.4523 274.6608 15.82673849  4003
STARLINK-32431          
1 61256U 24175P   24287.91667824 -.01336217  00000+0 -10369-1 0  9999
2 61256  53.1584  60.2499 0001284  69.5101 214.3897 15.73860518  4164
STARLINK-32432          
1 61257U 24175Q   24287.91667824 -.01339391  00000+0 -10396-1 0  9996
2 61257  53.1582  60.2544 0001142  70.2321 211.7497 15.73863274  4169
STARLINK-32382          
1 61258U 24175R   24287.91667824 -.01341730  00000+0 -10416-1 0  9990
2 61258  53.1586  60.2296 0001058  69.6352 223.8452 15.73864878  3918
STARLINK-32435          
1 61259U 24175S   24287.91667824 -.01345071  00000+0 -10443-1 0  9993
2 61259  53.1582  60.2464 0001256  58.4359 227.3767 15.73867501  4123
STARLINK-32474          
1 61260U 24175T   24287.91667824 -.01335111  00000+0 -10362-1 0  9999
2 61260  53.1583  60.2425 0000585  61.3584 226.3741 15.73861354  4121
STARLINK-32447          
1 61261U 24175U   24287.91667824 -.01342286  00000+0 -10421-1 0  9997
2 61261  53.1584  60.2339 0000756  72.6828 218.8792 15.73867390  4165
STARLINK-32446          
1 61262U 24175V   24287.91667824 -.01335826  00000+0 -10365-1 0  9997
2 61262  53.1584  60.2381 0001443  74.4644 215.1847 15.73860256  4179
2024-174F               
1 61263U 24174F   24288.18101479  .00159089  89478-5  98202-3 0  9998
2 61263  97.4311 294.2806 0163751 319.9970  38.9315 15.60689397  2945
2024-174G               
1 61443U 24174G   24287.86857674  .00447096  62896-4  20824-2 0  9993
2 61443  97.4260 294.0817 0134898 319.7922  39.3419 15.70857482  2711
CZ-2D R/B               
1 61445U 24177B   24288.07792657  .00282865  35429-4  10012-2 0  9992
2 61445  41.3912  54.7642 0018517  10.2985 349.8239 15.87936300  2649
CREW DRAGON 9           
1 61447U 24178A   24287.85348720  .00026028  00000+0  46498-3 0  9995
2 61447  51.6377  87.6318 0009119  65.7982 294.3959 15.49812774  1991
VULCAN CENTAUR R/B      
1 61448U 24179A   24278.48676111  .00000148  00000+0  00000+0 0  9994
2 61448  30.0000 357.3088 0004000 321.8000 177.5900 15.23529867    07
CYSAT-1                 
1 61501U 98067WZ  24287.84816056  .00109722  00000+0  17778-2 0  9996
2 61501  51.6367  87.5958 0008689  87.2733 272.9252 15.51890666   888
DORA                    
1 61502U 98067XA  24287.84724549  .00193203  00000+0  30200-2 0  9994
2 61502  51.6372  87.5904 0006095  75.3983 284.7683 15.52565453   872
HULIANWAN GAOGUI-03 (H*)
1 61503U 24181A   24284.71070559  .00000417 -72097-6  00000+0 0  9998
2 61503  28.4215 224.3262 7300910 179.4337  97.1562  2.28284594    08
SJ-19 DEB               
1 61505U 24177C   24287.74230778  .01683084  00000+0  63045-2 0  9998
2 61505  41.5985  57.9041 0014066  26.2228 333.9331 15.83979790   379
SJ-19 DEB               
1 61506U 24177D   24287.74766383  .00099977  00000+0  57672-3 0  9996
2 61506  41.6011  57.9486 0011407  40.0534 320.1153 15.77487479   342
NOAA 1                  
1 04793U 70106A   24287.90526498 -.00000023  00000+0  12723-3 0  9996
2 04793 101.4319 335.9180 0031958 104.8134  68.1804 12.54034093464068
NOAA 2 (ITOS-D)         
1 06235U 72082A   24287.94884809  .00000004  00000+0  31856-3 0  9997
2 06235 102.0230 288.3163 0003728 255.5162 158.7185 12.53188232378607
NOAA 3                  
1 06920U 73086A   24287.92767271 -.00000006  00000+0  30129-3 0  9999
2 06920 102.2856 284.9810 0006375 165.5882 265.0493 12.40373004306115
NOAA 4                  
1 07529U 74089A   24287.92911681 -.00000004  00000+0  26706-3 0  9999
2 07529 101.9979 283.3207 0008706 283.4298 146.2107 12.53185860282959
NOAA 5                  
1 09057U 76077A   24287.92218877  .00000002  00000+0  36669-3 0  9999
2 09057 102.2250 261.2021 0010114  19.4743  36.2656 12.37807200178840
TIROS N                 
1 11060U 78096A   24287.81911283  .00000684  00000+0  34781-3 0  9997
2 11060  98.5209 323.7260 0009982 207.2500 152.8154 14.18966022592034
NOAA 6                  
1 11416U 79057A   24288.09590977  .00001079  00000+0  39607-3 0  9995
2 11416  98.6240 309.1657 0008835 268.5891  91.4282 14.34777689363518
NOAA 7                  
1 12553U 81059A   24288.12492802  .00000323  00000+0  18095-3 0  9994
2 12553  98.8802 347.4850 0010938 210.4911 149.5629 14.17599348238384
NOAA 8                  
1 13923U 83022A   24287.72925006  .00000700  00000+0  29183-3 0  9999
2 13923  98.7368 287.9504 0013775 245.1672 114.8077 14.29400755163708
NOAA 9                  
1 15427U 84123A   24287.77979657  .00000614  00000+0  33045-3 0  9995
2 15427  99.1252 288.1707 0013646 282.0849 253.1672 14.16727231 56837
NOAA 10                 
1 16969U 86073A   24287.98512622  .00000692  00000+0  29199-3 0  9992
2 16969  98.6544 272.8810 0011966 350.6254  74.2360 14.28771382982379
NOAA 11                 
1 19531U 88089A   24287.75156351  .00000383  00000+0  21703-3 0  9997
2 19531  98.5349 245.1740 0009882 252.5496 107.4598 14.15619201860965
NOAA 12                 
1 21263U 91032A   24288.10730501  .00000528  00000+0  23706-3 0  9995
2 21263  98.5694 276.6085 0014110  19.0323 341.1382 14.26429340738090
NOAA 13                 
1 22739U 93050A   24287.87294310  .00000603  00000+0  34347-3 0  9999
2 22739  98.6218 240.9483 0010711  75.6974 284.5388 14.13337089607018
NOAA 14                 
1 23455U 94089A   24288.21676714  .00000321  00000+0  18867-3 0  9995
2 23455  98.4430 277.6814 0010356  45.2941 314.9075 14.14468452537063
NOAA 15                 
1 25338U 98030A   24288.11263155  .00000616  00000+0  27208-3 0  9993
2 25338  98.5611 312.7247 0009866 343.4116  16.6741 14.26749852374399
NOAA 16                 
1 26536U 00055A   24288.13523299  .00000372  00000+0  21868-3 0  9999
2 26536  98.5199 322.2356 0009347 253.1701 106.8448 14.13670087240880
NOAA 17                 
1 27453U 02032A   24287.88816665  .00000817  00000+0  36253-3 0  9996
2 27453  98.7769 238.4909 0011152 329.8431  30.2105 14.25752089159867
NOAA 18                 
1 28654U 05018A   24288.21666342  .00000645  00000+0  36677-3 0  9999
2 28654  98.8659   4.1529 0015214  86.9921 273.2993 14.13372381    76
NOAA 19                 
1 33591U 09005A   24288.11437415  .00000576  00000+0  33216-3 0  9990
2 33591  99.0336 345.1011 0013045 319.9011  40.1197 14.13156227808421
SUOMI NPP               
1 37849U 11061A   24288.16103732  .00000421  00000+0  22028-3 0  9990
2 37849  98.7302 224.3859 0000255  97.3212 262.7993 14.19530740671748
NOAA 20 (JPSS-1)        
1 43013U 17073A   24288.10773846  .00000395  00000+0  20830-3 0  9991
2 43013  98.7144 224.0656 0000761 164.0790 196.0411 14.19537723357775
NOAA 21 (JPSS-2)        
1 54234U 22150A   24288.14462210  .00000462  00000+0  24011-3 0  9994
2 54234  98.7599 224.6749 0001841 115.3771 244.7596 14.19537793 99857
ISS (ZARYA)             
1 25544U 98067A   24288.17167824 -.00136293  00000+0 -24400-2 0  9997
2 25544  51.6410  86.0538 0008258  70.7489 265.9019 15.49745034476996
CSS (TIANHE)            
1 48274U 21035A   24287.48643931  .00033222  00000+0  33516-3 0  9999
2 48274  41.4661  81.5079 0003982 197.2738 162.7967 15.64652759197609
ISS (NAUKA)             
1 49044U 21066A   24287.85348720  .00026028  00000+0  46498-3 0  9997
2 49044  51.6377  87.6318 0009119  65.7982 294.3959 15.49812774182675
FREGAT DEB              
1 49271U 11037PF  24287.37387246  .00016161  00000+0  41179-1 0  9995
2 49271  51.6284   7.1351 0901310  18.3921 344.7413 12.21447185149629
CSS (WENTIAN)           
1 53239U 22085A   24287.48643931  .00033222  00000+0  33516-3 0  9992
2 53239  41.4661  81.5079 0003982 197.2738 162.7967 15.64652759124392
CSS (MENGTIAN)          
1 54216U 22143A   24287.48643931  .00033222  00000+0  33516-3 0  9993
2 54216  41.4661  81.5079 0003982 197.2738 162.7967 15.64652759110753
TIANZHOU-7              
1 58811U 24013A   24287.48643931  .00033222  00000+0  33516-3 0  9996
2 58811  41.4661  81.5079 0003982 197.2738 162.7967 15.64652759474885
CREW DRAGON 8           
1 59097U 24042A   24287.85348720  .00026028  00000+0  46498-3 0  9993
2 59097  51.6377  87.6318 0009119  65.7982 294.3959 15.49812774 34333
1998-067WL              
1 59561U 98067WL  24287.73832991  .00143760  00000+0  91053-3 0  9992
2 59561  51.6258  74.7995 0004187 304.5236  55.5368 15.75581545 27848
SHENZHOU-18 (SZ-18)     
1 59591U 24078A   24287.48643931  .00033222  00000+0  33516-3 0  9993
2 59591  41.4661  81.5079 0003982 197.2738 162.7967 15.64652759 25939
SZ-17 MODULE            
1 59624U 23164C   24287.81942314  .00130145  00000+0  57730-3 0  9995
2 59624  41.4717  68.8201 0011871   2.3194 357.7706 15.83089806 26218
PROGRESS-MS 27          
1 59913U 24103A   24287.85348720  .00026028  00000+0  46498-3 0  9998
2 59913  51.6377  87.6318 0009119  65.7982 294.3959 15.49812774 21055
CYGNUS NG-21            
1 60378U 24139A   24287.85348720  .00026028  00000+0  46498-3 0  9994
2 60378  51.6377  87.6318 0009119  65.7982 294.3959 15.49812774 10599
PROGRESS-MS 28          
1 60450U 24145A   24287.85348720  .00026028  00000+0  46498-3 0  9992
2 60450  51.6377  87.6318 0009119  65.7982 294.3959 15.49812774  9059
